[{"OBJECT_NAME":"ISS (ZARYA)","OBJECT_ID":"1998-067A","EPOCH":"2026-03-27T20:12:32.650848","MEAN_MOTION":15.48591753,"ECCENTRICITY":0.0006212,"INCLINATION":51.6344,"RA_OF_ASC_NODE":342.6225,"ARG_OF_PERICENTER":240.1567,"MEAN_ANOMALY":119.8804,"EPHEMERIS_TYPE":0,"CLASSIFICATION_TYPE":"U","NORAD_CAT_ID":25544,"ELEMENT_SET_NO":999,"REV_AT_EPOCH":55914,"BSTAR":0.00022728,"MEAN_MOTION_DOT":0.0001192,"MEAN_MOTION_DDOT":0},{"OBJECT_NAME":"POISK","OBJECT_ID":"2009-060A","EPOCH":"2026-03-27T20:12:32.650848","MEAN_MOTION":15.48591753,"ECCENTRICITY":0.0006212,"INCLINATION":51.6344,"RA_OF_ASC_NODE":342.6225,"ARG_OF_PERICENTER":240.1567,"MEAN_ANOMALY":119.8804,"EPHEMERIS_TYPE":0,"CLASSIFICATION_TYPE":"U","NORAD_CAT_ID":36086,"ELEMENT_SET_NO":999,"REV_AT_EPOCH":55892,"BSTAR":0.00022728,"MEAN_MOTION_DOT":0.0001192,"MEAN_MOTION_DDOT":0},{"OBJECT_NAME":"CSS (TIANHE)","OBJECT_ID":"2021-035A","EPOCH":"2026-03-27T19:40:26.533056","MEAN_MOTION":15.61560654,"ECCENTRICITY":0.0004161,"INCLINATION":41.4669,"RA_OF_ASC_NODE":97.7682,"ARG_OF_PERICENTER":40.1011,"MEAN_ANOMALY":320.0134,"EPHEMERIS_TYPE":0,"CLASSIFICATION_TYPE":"U","NORAD_CAT_ID":48274,"ELEMENT_SET_NO":999,"REV_AT_EPOCH":28044,"BSTAR":0.00018751,"MEAN_MOTION_DOT":0.00016258,"MEAN_MOTION_DDOT":0},{"OBJECT_NAME":"ISS (NAUKA)","OBJECT_ID":"2021-066A","EPOCH":"2026-03-27T20:12:32.650848","MEAN_MOTION":15.48591753,"ECCENTRICITY":0.0006212,"INCLINATION":51.6344,"RA_OF_ASC_NODE":342.6225,"ARG_OF_PERICENTER":240.1567,"MEAN_ANOMALY":119.8804,"EPHEMERIS_TYPE":0,"CLASSIFICATION_TYPE":"U","NORAD_CAT_ID":49044,"ELEMENT_SET_NO":999,"REV_AT_EPOCH":55896,"BSTAR":0.00022728,"MEAN_MOTION_DOT":0.0001192,"MEAN_MOTION_DDOT":0},{"OBJECT_NAME":"FREGAT DEB","OBJECT_ID":"2011-037PF","EPOCH":"2026-03-27T17:34:45.819264","MEAN_MOTION":12.40720459,"ECCENTRICITY":0.0961626,"INCLINATION":51.646,"RA_OF_ASC_NODE":246.5783,"ARG_OF_PERICENTER":100.7568,"MEAN_ANOMALY":270.2883,"EPHEMERIS_TYPE":0,"CLASSIFICATION_TYPE":"U","NORAD_CAT_ID":49271,"ELEMENT_SET_NO":999,"REV_AT_EPOCH":21493,"BSTAR":0.012463,"MEAN_MOTION_DOT":8.74e-5,"MEAN_MOTION_DDOT":0},{"OBJECT_NAME":"CSS (WENTIAN)","OBJECT_ID":"2022-085A","EPOCH":"2026-03-27T19:40:26.533056","MEAN_MOTION":15.61560654,"ECCENTRICITY":0.0004161,"INCLINATION":41.4669,"RA_OF_ASC_NODE":97.7682,"ARG_OF_PERICENTER":40.1011,"MEAN_ANOMALY":320.0134,"EPHEMERIS_TYPE":0,"CLASSIFICATION_TYPE":"U","NORAD_CAT_ID":53239,"ELEMENT_SET_NO":999,"REV_AT_EPOCH":28056,"BSTAR":0.00018751,"MEAN_MOTION_DOT":0.00016258,"MEAN_MOTION_DDOT":0},{"OBJECT_NAME":"CSS (MENGTIAN)","OBJECT_ID":"2022-143A","EPOCH":"2026-03-27T19:40:26.533056","MEAN_MOTION":15.61560654,"ECCENTRICITY":0.0004161,"INCLINATION":41.4669,"RA_OF_ASC_NODE":97.7682,"ARG_OF_PERICENTER":40.1011,"MEAN_ANOMALY":320.0134,"EPHEMERIS_TYPE":0,"CLASSIFICATION_TYPE":"U","NORAD_CAT_ID":54216,"ELEMENT_SET_NO":999,"REV_AT_EPOCH":28056,"BSTAR":0.00018751,"MEAN_MOTION_DOT":0.00016258,"MEAN_MOTION_DDOT":0},{"OBJECT_NAME":"TIANZHOU-9","OBJECT_ID":"2025-149A","EPOCH":"2026-03-27T19:40:26.533056","MEAN_MOTION":15.61560654,"ECCENTRICITY":0.0004161,"INCLINATION":41.4669,"RA_OF_ASC_NODE":97.7682,"ARG_OF_PERICENTER":40.1011,"MEAN_ANOMALY":320.0134,"EPHEMERIS_TYPE":0,"CLASSIFICATION_TYPE":"U","NORAD_CAT_ID":64786,"ELEMENT_SET_NO":999,"REV_AT_EPOCH":28056,"BSTAR":0.00018751,"MEAN_MOTION_DOT":0.00016258,"MEAN_MOTION_DDOT":0},{"OBJECT_NAME":"PROGRESS-MS 32","OBJECT_ID":"2025-204A","EPOCH":"2026-03-27T09:22:03.432864","MEAN_MOTION":15.48581373,"ECCENTRICITY":0.00062307,"INCLINATION":51.6344,"RA_OF_ASC_NODE":344.8561,"ARG_OF_PERICENTER":238.3142,"MEAN_ANOMALY":121.7239,"EPHEMERIS_TYPE":0,"CLASSIFICATION_TYPE":"U","NORAD_CAT_ID":65586,"ELEMENT_SET_NO":999,"REV_AT_EPOCH":55450,"BSTAR":0.00024174273,"MEAN_MOTION_DOT":0.00012703,"MEAN_MOTION_DDOT":0},{"OBJECT_NAME":"YOTSUBA-KULOVER","OBJECT_ID":"1998-067XN","EPOCH":"2026-03-27T01:04:32.975904","MEAN_MOTION":15.9004366,"ECCENTRICITY":0.00054136,"INCLINATION":51.6189,"RA_OF_ASC_NODE":326.6887,"ARG_OF_PERICENTER":198.9567,"MEAN_ANOMALY":161.1238,"EPHEMERIS_TYPE":0,"CLASSIFICATION_TYPE":"U","NORAD_CAT_ID":65941,"ELEMENT_SET_NO":999,"REV_AT_EPOCH":2625,"BSTAR":0.0011630662,"MEAN_MOTION_DOT":0.00355238,"MEAN_MOTION_DDOT":5.7819267e-5},{"OBJECT_NAME":"BOTAN","OBJECT_ID":"1998-067XQ","EPOCH":"2026-03-27T08:52:06.703392","MEAN_MOTION":15.89414772,"ECCENTRICITY":0.0005989,"INCLINATION":51.6222,"RA_OF_ASC_NODE":325.1299,"ARG_OF_PERICENTER":199.5412,"MEAN_ANOMALY":160.5365,"EPHEMERIS_TYPE":0,"CLASSIFICATION_TYPE":"U","NORAD_CAT_ID":65943,"ELEMENT_SET_NO":999,"REV_AT_EPOCH":2630,"BSTAR":0.0010445,"MEAN_MOTION_DOT":0.00322871,"MEAN_MOTION_DDOT":0},{"OBJECT_NAME":"HRC MONOBLOCK CAMERA","OBJECT_ID":"1998-067XR","EPOCH":"2026-03-27T20:33:06.010848","MEAN_MOTION":15.64104445,"ECCENTRICITY":0.0003825,"INCLINATION":51.629,"RA_OF_ASC_NODE":333.7145,"ARG_OF_PERICENTER":177.1157,"MEAN_ANOMALY":182.9861,"EPHEMERIS_TYPE":0,"CLASSIFICATION_TYPE":"U","NORAD_CAT_ID":66052,"ELEMENT_SET_NO":999,"REV_AT_EPOCH":2523,"BSTAR":0.0005037,"MEAN_MOTION_DOT":0.00048459,"MEAN_MOTION_DDOT":0},{"OBJECT_NAME":"HTV-X1","OBJECT_ID":"2025-241A","EPOCH":"2026-03-27T20:15:54.914976","MEAN_MOTION":15.32425085,"ECCENTRICITY":0.0007354,"INCLINATION":51.6384,"RA_OF_ASC_NODE":345.5888,"ARG_OF_PERICENTER":241.4372,"MEAN_ANOMALY":118.587,"EPHEMERIS_TYPE":0,"CLASSIFICATION_TYPE":"U","NORAD_CAT_ID":66174,"ELEMENT_SET_NO":999,"REV_AT_EPOCH":2372,"BSTAR":9.6895e-5,"MEAN_MOTION_DOT":2.71e-5,"MEAN_MOTION_DDOT":0},{"OBJECT_NAME":"SZ-21 MODULE","OBJECT_ID":"2025-246C","EPOCH":"2026-03-27T16:50:49.909056","MEAN_MOTION":15.6991592,"ECCENTRICITY":0.0001454,"INCLINATION":41.4743,"RA_OF_ASC_NODE":92.3645,"ARG_OF_PERICENTER":209.3733,"MEAN_ANOMALY":150.7028,"EPHEMERIS_TYPE":0,"CLASSIFICATION_TYPE":"U","NORAD_CAT_ID":66515,"ELEMENT_SET_NO":999,"REV_AT_EPOCH":2090,"BSTAR":0.0003014,"MEAN_MOTION_DOT":0.00037039,"MEAN_MOTION_DDOT":0},{"OBJECT_NAME":"SHENZHOU-22","OBJECT_ID":"2025-272A","EPOCH":"2026-03-27T19:40:26.533056","MEAN_MOTION":15.61560654,"ECCENTRICITY":0.0004161,"INCLINATION":41.4669,"RA_OF_ASC_NODE":97.7682,"ARG_OF_PERICENTER":40.1011,"MEAN_ANOMALY":320.0134,"EPHEMERIS_TYPE":0,"CLASSIFICATION_TYPE":"U","NORAD_CAT_ID":66645,"ELEMENT_SET_NO":999,"REV_AT_EPOCH":28056,"BSTAR":0.00018751,"MEAN_MOTION_DOT":0.00016258,"MEAN_MOTION_DDOT":0},{"OBJECT_NAME":"SOYUZ-MS 28","OBJECT_ID":"2025-275A","EPOCH":"2026-03-27T20:12:32.650848","MEAN_MOTION":15.48591753,"ECCENTRICITY":0.0006212,"INCLINATION":51.6344,"RA_OF_ASC_NODE":342.6225,"ARG_OF_PERICENTER":240.1567,"MEAN_ANOMALY":119.8804,"EPHEMERIS_TYPE":0,"CLASSIFICATION_TYPE":"U","NORAD_CAT_ID":66664,"ELEMENT_SET_NO":999,"REV_AT_EPOCH":55920,"BSTAR":0.00022728,"MEAN_MOTION_DOT":0.0001192,"MEAN_MOTION_DDOT":0}]
